NORAD_CAT_ID,OBJECT_NAME,OBJECT_TYPE,EPOCH,MEAN_MOTION,ECCENTRICITY,INCLINATION,RA_OF_ASC_NODE,ARG_OF_PERICENTER,MEAN_ANOMALY,BSTAR,MEAN_MOTION_DOT,MEAN_MOTION_DDOT,TLE_LINE0,TLE_LINE1,TLE_LINE2,SEMIMAJOR_AXIS,PERIOD,APOGEE,PERIGEE,DECAYED
53703.0,STARLINK-4731,PAYLOAD,2024-07-12 23:00:49,15.08839844,0.0001345,53.2168,78.605,92.3365,267.7781,6.8399e-05,8.01e-06,0.0,0 STARLINK-4731,1 53703U 22107D   24194.95890104  .00000801  00000-0  68399-4 0  9994,2 53703  53.2168  78.6050 0001345  92.3365 267.7781 15.08839844103565,6917.881,95.438,540.676,538.815,0.0
53703.0,STARLINK-4731,PAYLOAD,2024-07-13 02:11:35,15.08842308,0.0001251,53.2164,78.0107,90.3103,269.8033,3.9434e-05,3.4e-06,0.0,0 STARLINK-4731,1 53703U 22107D   24195.09137998  .00000340  00000-0  39434-4 0  9991,2 53703  53.2164  78.0107 0001251  90.3103 269.8033 15.08842308103586,6917.873,95.437,540.604,538.873,0.0
53703.0,STARLINK-4731,PAYLOAD,2024-07-13 22:51:36,15.0883828,0.0001209,53.2165,74.1441,90.4422,269.6708,4.1075e-05,3.66e-06,0.0,0 STARLINK-4731,1 53703U 22107D   24195.95250348  .00000366  00000-0  41075-4 0  9993,2 53703  53.2165  74.1441 0001209  90.4422 269.6708 15.08838280103719,6917.886,95.438,540.587,538.914,0.0
53703.0,STARLINK-4731,PAYLOAD,2024-07-14 02:02:22,15.08836941,0.0001203,53.2165,73.5501,89.3835,270.7295,3.1121e-05,2.07e-06,0.0,0 STARLINK-4731,1 53703U 22107D   24196.08498486  .00000207  00000-0  31121-4 0  9990,2 53703  53.2165  73.5501 0001203  89.3835 270.7295 15.08836941102982,6917.89,95.438,540.587,538.923,0.0
53703.0,STARLINK-4731,PAYLOAD,2024-07-14 08:23:54,15.08844633,0.0001335,53.2178,72.3639,98.6228,261.4915,0.00010063,1.314e-05,0.0,0 STARLINK-4731,1 53703U 22107D   24196.34993754  .00001314  00000-0  10063-3 0  9998,2 53703  53.2178  72.3639 0001335  98.6228 261.4915 15.08844633103029,6917.866,95.437,540.655,538.808,0.0
53703.0,STARLINK-4731,PAYLOAD,2024-07-14 21:07:00,15.08833989,0.0001375,53.218,69.987,98.4646,261.6502,6.158e-05,6.92e-06,0.0,0 STARLINK-4731,1 53703U 22107D   24196.87986737  .00000692  00000-0  61580-4 0  9998,2 53703  53.2180  69.9870 0001375  98.4646 261.6502 15.08833989103102,6917.899,95.438,540.715,538.813,0.0
53703.0,STARLINK-4731,PAYLOAD,2024-07-15 08:14:41,15.08855001,0.0001255,53.2184,67.9029,96.0941,264.0194,0.00015825,2.233e-05,0.0,0 STARLINK-4731,1 53703U 22107D   24197.34353063  .00002233  00000-0  15825-3 0  9994,2 53703  53.2184  67.9029 0001255  96.0941 264.0194 15.08855001103179,6917.835,95.437,540.568,538.831,0.0
53703.0,STARLINK-4731,PAYLOAD,2024-07-15 20:57:47,15.08831864,0.0001434,53.2177,65.5232,100.3061,259.8093,1.2417e-05,-9e-07,0.0,0 STARLINK-4731,1 53703U 22107D   24197.87347096 -.00000090  00000-0  12417-4 0  9996,2 53703  53.2177  65.5232 0001434 100.3061 259.8093 15.08831864103252,6917.905,95.438,540.762,538.778,0.0
53703.0,STARLINK-4731,PAYLOAD,2024-07-15 22:33:10,15.0883587,0.0001395,53.2176,65.2284,105.8221,254.2925,4.2951e-05,3.96e-06,0.0,0 STARLINK-4731,1 53703U 22107D   24197.93970804  .00000396  00000-0  42951-4 0  9996,2 53703  53.2176  65.2284 0001395 105.8221 254.2925 15.08835870104018,6917.893,95.438,540.723,538.793,0.0
53703.0,STARLINK-4731,PAYLOAD,2024-07-16 20:48:34,15.08843844,0.0001554,53.2182,61.0666,101.7406,258.3761,0.00011367,1.522e-05,0.0,0 STARLINK-4731,1 53703U 22107D   24198.86706152  .00001522  00000-0  11367-3 0  9990,2 53703  53.2182  61.0666 0001554 101.7406 258.3761 15.08843844103405,6917.869,95.437,540.809,538.659,0.0
53703.0,STARLINK-4731,PAYLOAD,2024-07-16 22:23:57,15.08846623,0.0001257,53.2166,60.7663,93.9054,266.2082,0.00015076,2.113e-05,0.0,0 STARLINK-4731,1 53703U 22107D   24198.93329983  .00002113  00000-0  15076-3 0  9999,2 53703  53.2166  60.7663 0001257  93.9054 266.2082 15.08846623104167,6917.86,95.437,540.595,538.856,0.0
53703.0,STARLINK-4731,PAYLOAD,2024-07-17 07:56:15,15.08851822,0.0001624,53.2175,58.9823,82.6506,277.4671,0.00015891,2.243e-05,0.0,0 STARLINK-4731,1 53703U 22107D   24199.33073690  .00002243  00000-0  15891-3 0  9994,2 53703  53.2175  58.9823 0001624  82.6506 277.4671 15.08851822104221,6917.844,95.437,540.833,538.586,0.0
53703.0,STARLINK-4731,PAYLOAD,2024-07-17 20:39:21,15.08828125,0.0001245,53.216,56.603,85.358,274.7554,-0.00012951,-2.348e-05,0.0,0 STARLINK-4731,1 53703U 22107D   24199.86066874 -.00002348  00000-0 -12951-3 0  9990,2 53703  53.2160  56.6030 0001245  85.3580 274.7554 15.08828125103556,6917.917,95.438,540.643,538.92,0.0
53703.0,STARLINK-4731,PAYLOAD,2024-07-17 22:14:44,15.08831713,0.0001284,53.2163,56.3061,86.0722,274.0417,-4.5528e-05,-1.012e-05,0.0,0 STARLINK-4731,1 53703U 22107D   24199.92690813 -.00001012  00000-0 -45528-4 0  9997,2 53703  53.2163  56.3061 0001284  86.0722 274.0417 15.08831713104312,6917.906,95.438,540.659,538.882,0.0
53703.0,STARLINK-4731,PAYLOAD,2024-07-18 07:47:03,15.08848063,0.000121,53.2161,54.5216,89.3506,270.7625,0.00027709,4.126e-05,0.0,0 STARLINK-4731,1 53703U 22107D   24200.32434234  .00004126  00000-0  27709-3 0  9994,2 53703  53.2161  54.5216 0001210  89.3506 270.7625 15.08848063104373,6917.856,95.437,540.558,538.884,0.0
53703.0,STARLINK-4731,PAYLOAD,2024-07-18 20:30:08,15.08849808,0.0001341,53.2152,52.144,87.0268,273.0877,0.00066697,0.00010346,0.0,0 STARLINK-4731,1 53703U 22107D   24200.85426489  .00010346  00000-0  66697-3 0  9995,2 53703  53.2152  52.1440 0001341  87.0268 273.0877 15.08849808104453,6917.85,95.437,540.643,538.788,0.0
53703.0,STARLINK-4731,PAYLOAD,2024-07-19 07:37:49,15.08870377,0.000155,53.2171,50.0559,109.9453,250.1706,0.0010862,0.00017055,0.0,0 STARLINK-4731,1 53703U 22107D   24201.31793554  .00017055  00000-0  10862-2 0  9993,2 53703  53.2171  50.0559 0001550 109.9453 250.1706 15.08870377104524,6917.788,95.436,540.725,538.58,0.0
53703.0,STARLINK-4731,PAYLOAD,2024-07-19 20:20:55,15.08828828,0.0001379,53.2165,47.68,85.5136,274.6014,-0.00042927,-7.111e-05,0.0,0 STARLINK-4731,1 53703U 22107D   24201.84786301 -.00007111  00000-0 -42927-3 0  9995,2 53703  53.2165  47.6800 0001379  85.5136 274.6014 15.08828828103856,6917.915,95.438,540.734,538.826,0.0
53703.0,STARLINK-4731,PAYLOAD,2024-07-19 23:31:41,15.08830446,0.0001395,53.2165,47.0845,84.5264,275.5888,-0.0001327,-2.399e-05,0.0,0 STARLINK-4731,1 53703U 22107D   24201.98034402 -.00002399  00000-0 -13270-3 0  9990,2 53703  53.2165  47.0845 0001395  84.5264 275.5888 15.08830446104622,6917.91,95.438,540.74,538.81,0.0
53703.0,STARLINK-4731,PAYLOAD,2024-07-20 20:11:43,15.08834462,0.0001436,53.2174,43.2179,79.7695,280.3458,0.00071345,0.00011083,0.0,0 STARLINK-4731,1 53703U 22107D   24202.84147431  .00011083  00000-0  71345-3 0  9998,2 53703  53.2174  43.2179 0001436  79.7695 280.3458 15.08834462104753,6917.897,95.438,540.756,538.769,0.0
53703.0,STARLINK-4731,PAYLOAD,2024-07-20 23:22:29,15.08836199,0.0001442,53.2175,42.6234,80.1599,279.9556,0.00066029,0.00010235,0.0,0 STARLINK-4731,1 53703U 22107D   24202.97395487  .00010235  00000-0  66029-3 0  9999,2 53703  53.2175  42.6234 0001442  80.1599 279.9556 15.08836199104027,6917.892,95.438,540.755,538.759,0.0
53703.0,STARLINK-4731,PAYLOAD,2024-07-21 20:02:30,15.08838644,0.0001307,53.2167,38.7562,75.6967,284.417,0.00035572,5.378e-05,0.0,0 STARLINK-4731,1 53703U 22107D   24203.83507810  .00005378  00000-0  35572-3 0  9991,2 53703  53.2167  38.7562 0001307  75.6967 284.4170 15.08838644104150,6917.885,95.438,540.654,538.845,0.0
53703.0,STARLINK-4731,PAYLOAD,2024-07-22 13:31:43,15.08872393,9.98e-05,53.2161,35.4895,100.5013,259.6092,0.00072559,0.00011289,0.0,0 STARLINK-4731,1 53703U 22107D   24204.56369889  .00011289  00000-0  72559-3 0  9998,2 53703  53.2161  35.4895 0000998 100.5013 259.6092 15.08872393104260,6917.781,95.436,540.337,538.956,0.0
53703.0,STARLINK-4731,PAYLOAD,2024-07-23 21:19:18,15.08959328,0.0001649,53.2155,29.5381,69.7055,290.4114,0.00093964,0.00014747,0.0,0 STARLINK-4731,1 53703U 22107D   24205.88841423  .00014747  00000-0  93964-3 0  9998,2 53703  53.2155  29.5381 0001649  69.7055 290.4114 15.08959328105211,6917.516,95.43,540.521,538.24,0.0
53703.0,STARLINK-4731,PAYLOAD,2024-07-24 03:40:48,15.08976508,9.81e-05,53.2164,28.3517,80.0355,280.0748,0.00098175,0.00015429,0.0,0 STARLINK-4731,1 53703U 22107D   24206.15334304  .00015429  00000-0  98175-3 0  9991,2 53703  53.2164  28.3517 0000981  80.0355 280.0748 15.08976508104504,6917.463,95.429,540.007,538.65,0.0
53703.0,STARLINK-4731,PAYLOAD,2024-07-24 11:37:41,15.08986202,7.88e-05,53.2202,26.8622,87.254,272.8542,0.00079434,0.00012427,0.0,0 STARLINK-4731,1 53703U 22107D   24206.48450974  .00012427  00000-0  79434-3 0  9991,2 53703  53.2202  26.8622 0000788  87.2540 272.8542 15.08986202105309,6917.434,95.428,539.844,538.753,0.0
53703.0,STARLINK-4731,PAYLOAD,2024-07-24 21:10:00,15.08901941,3.92e-05,53.2235,25.0779,265.7256,94.3691,-0.0014041,-0.00022601,0.0,0 STARLINK-4731,1 53703U 22107D   24206.88194486 -.00022601  00000-0 -14041-2 0  9997,2 53703  53.2235  25.0779 0000392 265.7256  94.3691 15.08901941105362,6917.691,95.434,539.827,539.285,0.0
53703.0,STARLINK-4731,PAYLOAD,2024-07-25 01:56:10,15.08844578,0.0001104,53.2188,24.1857,77.8543,282.2573,-0.002605,-0.00041512,0.0,0 STARLINK-4731,1 53703U 22107D   24207.08067883 -.00041512  00000-0 -26050-2 0  9995,2 53703  53.2188  24.1857 0001104  77.8543 282.2573 15.08844578104648,6917.866,95.437,540.495,538.968,0.0
53703.0,STARLINK-4731,PAYLOAD,2024-07-25 22:36:15,15.08762607,6.96e-05,53.2209,20.321,90.9757,269.1315,-0.0010826,-0.00017439,0.0,0 STARLINK-4731,1 53703U 22107D   24207.94184664 -.00017439  00000-0 -10826-2 0  9992,2 53703  53.2209  20.3210 0000696  90.9757 269.1315 15.08762607105529,6918.117,95.442,540.463,539.5,0.0
53703.0,STARLINK-4731,PAYLOAD,2024-07-26 01:47:02,15.08782598,0.0001169,53.2219,19.7262,51.7465,308.3633,-0.00093195,-0.00015066,0.0,0 STARLINK-4731,1 53703U 22107D   24208.07433064 -.00015066  00000-0 -93195-3 0  9993,2 53703  53.2219  19.7262 0001169  51.7465 308.3633 15.08782598104794,6918.056,95.441,540.73,539.112,0.0
